"""SGP4 reference fixture for future high-fidelity propagation gates.

NodalArc does not yet expose an SGP4/TLE OME propagator. This fixture locks
down a local, deterministic TLE reference generated by the `sgp4` dependency
so the eventual engine has a numeric release gate instead of a prose promise.
"""

from __future__ import annotations

import pytest
from sgp4.api import Satrec

ISS_TLE_LINE_1 = "1 25544U 98067A   21075.51041667  .00001264  00000-0  29660-4 0  9993"
ISS_TLE_LINE_2 = "2 25544  51.6442  21.5417 0002426  95.1670  21.8444 15.48974333273145"

VANGUARD_1_TLE_LINE_1 = "1 00005U 58002B   00179.78495062  .00000023  00000-0  28098-4 0  4753"
VANGUARD_1_TLE_LINE_2 = "2 00005  34.2682 348.7242 1859667 331.7664  19.3264 10.82419157413667"

NOAA_14_TLE_LINE_1 = "1 23455U 94089A   97320.90946019  .00000140  00000-0  10191-3 0  2621"
NOAA_14_TLE_LINE_2 = "2 23455  99.0090 272.6745 0008546 223.1686 136.8816 14.11711747148495"


REFERENCE_CASES = (
    (
        "iss",
        ISS_TLE_LINE_1,
        ISS_TLE_LINE_2,
        0.0,
        (-4251.971748597022, 2357.358738349331, 4740.4057076426725),
        (-5.557632235794692, -4.5159463531633115, -2.7313550530977366),
    ),
    (
        "iss",
        ISS_TLE_LINE_1,
        ISS_TLE_LINE_2,
        3600.0,
        (6508.565036110713, 1707.402506514798, -981.9621644319247),
        (-0.39186198852796383, 4.860355573318967, 5.905417820753693),
    ),
    (
        "iss",
        ISS_TLE_LINE_1,
        ISS_TLE_LINE_2,
        21600.0,
        (580.1044859144467, 4488.375601723018, 5061.453426970322),
        (-7.3458865911793065, -1.1516813754037765, 1.8576788694520805),
    ),
    (
        "vanguard-1",
        VANGUARD_1_TLE_LINE_1,
        VANGUARD_1_TLE_LINE_2,
        0.0,
        (7022.465297429343, -1400.0829514347054, 0.03996296163552402),
        (1.8938409953147717, 6.4058937630381365, 4.534807250354833),
    ),
    (
        "vanguard-1",
        VANGUARD_1_TLE_LINE_1,
        VANGUARD_1_TLE_LINE_2,
        3600.0,
        (-8198.270000869177, 5546.904772481435, 2599.0678906489925),
        (-3.294076397325598, -3.582921896037862, -2.838098690266733),
    ),
    (
        "vanguard-1",
        VANGUARD_1_TLE_LINE_1,
        VANGUARD_1_TLE_LINE_2,
        21600.0,
        (-7154.031190084393, -3783.176835483181, -3536.194128211291),
        (4.741887419413347, -4.151817759863794, -2.0939354197478646),
    ),
    (
        "noaa-14",
        NOAA_14_TLE_LINE_1,
        NOAA_14_TLE_LINE_2,
        0.0,
        (337.78759680613814, -7231.179777460484, 0.004997558931635687),
        (-1.1600236659585037, -0.05093330949129727, 7.328315300243385),
    ),
    (
        "noaa-14",
        NOAA_14_TLE_LINE_1,
        NOAA_14_TLE_LINE_2,
        3600.0,
        (304.6530892237869, 6169.066489956457, -3761.0190253226187),
        (1.172080157481795, -3.8565456711772836, -6.235575318250629),
    ),
    (
        "noaa-14",
        NOAA_14_TLE_LINE_1,
        NOAA_14_TLE_LINE_2,
        21600.0,
        (-167.93951748295362, 7122.45577244262, -1234.100211502585),
        (1.2089280892420655, -1.2206106644705454, -7.226829478325151),
    ),
)


@pytest.mark.parametrize(
    ("name", "tle_line_1", "tle_line_2", "offset_s", "expected_r_km", "expected_v_km_s"),
    REFERENCE_CASES,
)
def test_tle_sgp4_reference_positions(
    name,
    tle_line_1,
    tle_line_2,
    offset_s,
    expected_r_km,
    expected_v_km_s,
):
    del name
    sat = Satrec.twoline2rv(tle_line_1, tle_line_2)
    jd = sat.jdsatepoch + sat.jdsatepochF + offset_s / 86400.0

    error_code, position_km, velocity_km_s = sat.sgp4(jd, 0.0)

    assert error_code == 0
    assert position_km == pytest.approx(expected_r_km, abs=1e-9)
    assert velocity_km_s == pytest.approx(expected_v_km_s, abs=1e-12)
